TDRS 3                  
1 19548U 88091B   22212.22827253 -.00000294  00000+0  00000+0 0  9997
2 19548  13.6829 350.9697 0033614 329.5171  21.6358  1.00277711111174
HST                     
1 20580U 90037B   22212.50122490  .00000876  00000+0  40706-4 0  9997
2 20580  28.4689 236.9044 0002731 145.7827 338.4195 15.10719044572884
TDRS 5                  
1 21639U 91054B   22212.23761035  .00000088  00000+0  00000+0 0  9990
2 21639  14.2339   4.2983 0024488   4.5252 218.1348  1.00265589113508
TDRS 6                  
1 22314U 93003B   22212.27896501 -.00000291  00000+0  00000+0 0  9995
2 22314  14.1334   7.5464 0011958 121.8435 233.8828  1.00279872108193
TDRS 7                  
1 23613U 95035B   22212.43362111 -.00000197  00000+0  00000+0 0  9993
2 23613  13.9604 358.2371 0028559  57.4499 134.1822  1.00275900 99043
ISS (ZARYA)             
1 25544U 98067A   22212.68778122  .00004881  00000+0  92852-4 0  9990
2 25544  51.6434 116.1561 0005228  69.8673  16.6474 15.50186142352081
LANDSAT 7               
1 25682U 99020A   22212.57365416  .00000164  00000+0  43469-4 0  9999
2 25682  97.9764 258.9738 0001299  73.0841 287.0508 14.59778714239000
TERRA                   
1 25994U 99068A   22212.48999024 -.00000006  00000+0  85680-5 0  9993
2 25994  98.1351 283.3967 0001661  98.0895 319.5922 14.57129528203032
TDRS 8                  
1 26388U 00034A   22212.50629410 -.00000232  00000+0  00000+0 0  9996
2 26388  10.4346  42.2469 0020299 352.9259 185.5730  1.00272831 80978
TIMED                   
1 26998U 01055B   22212.46074001  .00000241  00000+0  29822-4 0  9999
2 26998  74.0714 191.9671 0000924 303.4052  56.7041 14.88732253119552
TDRS 9                  
1 27389U 02011A   22212.47607083 -.00000285  00000+0  00000+0 0  9991
2 27389   9.1105  60.4165 0022782 302.6253  55.1043  1.00276262 76233
AQUA                    
1 27424U 02022A   22212.51744406  .00000199  00000+0  54021-4 0  9999
2 27424  98.2485 153.9947 0002012  85.8205  45.5260 14.57342544 76608
TDRS 10                 
1 27566U 02055A   22212.44216370  .00000093  00000+0  00000+0 0  9994
2 27566   8.2805  49.7230 0006725 353.1028 254.4360  1.00279245 72023
SORCE                   
1 27651U 03004A   22212.50332742  .00000385  00000+0  53138-4 0  9992
2 27651  39.9965 331.5147 0022148  60.7814 299.5187 14.90011030 59645
AURA                    
1 28376U 04026A   22212.51338883  .00000197  00000+0  53746-4 0  9991
2 28376  98.2102 155.2184 0001503  86.0261 274.1109 14.57101881959641
SWIFT                   
1 28485U 04047A   22212.53442182  .00001886  00000+0  93453-4 0  9990
2 28485  20.5577   0.8876 0010665 136.5176 223.6100 15.06643132970204
THEMIS A                
1 30580U 07004A   22212.43686769 -.00000495  00000+0  65667-3 0  9996
2 30580  14.0376 341.1149 8381669 174.2658 215.7850  0.87835978 53513
THEMIS D                
1 30797U 07004D   22212.52992539 -.00000388  00000+0  00000+0 0  9998
2 30797   9.8493 330.5471 8340944 187.9865 256.4423  0.87838258 28623
THEMIS E                
1 30798U 07004E   22212.52992539 -.00000399  00000+0  00000+0 0  9991
2 30798  10.7232 343.8555 8329043 176.8100 245.9345  0.87841703 53467
AIM                     
1 31304U 07015A   22212.49482600  .00002745  00000+0  13763-3 0  9996
2 31304  97.8535 133.3557 0003766 205.8662 154.2383 15.18257534837878
FGRST (GLAST)           
1 33053U 08029A   22212.44717189  .00000789  00000+0  27575-4 0  9996
2 33053  25.5815 227.1634 0011810 331.6912  28.2981 15.12295144780361
WISE                    
1 36119U 09071A   22212.42901190  .00002856  00000+0  88869-4 0  9995
2 36119  97.2367 245.9827 0003657 124.4794 235.6795 15.34103055702244
TDRS 11                 
1 39070U 13004A   22212.54563094  .00000085  00000+0  00000+0 0  9993
2 39070   2.8908 347.2934 0006908  77.9924 265.8520  1.00271035 32485
TDRS 12                 
1 39504U 14004A   22212.40850740 -.00000264  00000+0  00000+0 0  9998
2 39504   3.8221 348.0480 0004907 144.0123 282.8376  1.00264182 30071
GPM-CORE                
1 39574U 14009C   22212.53298067  .00008034  00000+0  12065-3 0  9992
2 39574  65.0016  38.2316 0009634 269.8337  90.1705 15.55541068478462
MMS 1                   
1 40482U 15011A   22210.66624109 -.00001993  00000+0  00000+0 0  9998
2 40482  31.6447 102.1270 8731681  55.8993  96.5619  0.28440580 13428
MMS 2                   
1 40483U 15011B   22210.66901887 -.00001993  00000+0  00000+0 0  9990
2 40483  31.6424 102.1306 8732855  55.8961  96.8552  0.28440571 13488
MMS 3                   
1 40484U 15011C   22208.99887998 -.00002132  00000+0  00000+0 0  9996
2 40484  31.6397 102.2123 8730026  55.7780 286.0156  0.28420763 13150
MMS 4                   
1 40485U 15011D   22208.99887998 -.00002132  00000+0  00000+0 0  9997
2 40485  31.6387 102.2114 8730691  55.7908 285.9637  0.28427752 13360
TDRS 13                 
1 42915U 17047A   22212.19915260 -.00000093  00000+0  00000+0 0  9993
2 42915   4.4162 333.8540 0019053 120.0094 275.1452  1.00272423 18141
JPSS-1                  
1 43013U 17073A   22212.48747280  .00000014  00000+0  27164-4 0  9996
2 43013  98.7170 150.3562 0000846  67.7530 292.3736 14.19563681243479
